[
    {
        "Altitude(m)": 624792.7856029682,
        "Argument of Periapsis(deg)": 0.0,
        "Eccentricity": 0.0,
        "Inclination(deg)": 60.0,
        "Latitude(deg)": -59.147128592895214,
        "Longitude(deg)": -150.9737640733419,
        "Mean Anomaly(deg)": 261.8182,
        "RAAN(deg)": 55.00000000000001,
        "Satellite Name": "Test1 258",
        "Satellite Number": 258,
        "Semi-Major Axis(m)": 6980739.136638005,
        "Time(s)": 0
    },
    {
        "Altitude(m)": 624842.1782465007,
        "Argument of Periapsis(deg)": 0.00010418945913296404,
        "Eccentricity": 0.0,
        "Inclination(deg)": 60.0,
        "Latitude(deg)": -59.28921414444834,
        "Longitude(deg)": -149.84425956028366,
        "Mean Anomaly(deg)": 262.4383061454619,
        "RAAN(deg)": 54.999579950860266,
        "Satellite Name": "Test1 258",
        "Satellite Number": 258,
        "Semi-Major Axis(m)": 6980739.136638005,
        "Time(s)": 10
    }
]